start=new Date('2023-04-05T00:00:00.000Z').valueOf();
sats=[{"BSTAR":"0.00197690000000","TIME_SYSTEM":"UTC","GP_ID":"229462374","CLASSIFICATION_TYPE":"U","INCLINATION":"53.0542","TLE_LINE2":"2 47367  53.0542 186.1270 0001186  93.1628 266.9497 15.06366780121737","MEAN_ELEMENT_THEORY":"SGP4","EPHEMERIS_TYPE":"0","REV_AT_EPOCH":"12173","DECAY_DATE":null,"PERIAPSIS":"546.494","OBJECT_NAME":"STARLINK-2082","APOAPSIS":"548.137","MEAN_MOTION":"15.06366780","FILE":"3879974","MEAN_ANOMALY":"266.9497","ARG_OF_PERICENTER":"93.1628","MEAN_MOTION_DOT":"0.00029261","RA_OF_ASC_NODE":"186.1270","NORAD_CAT_ID":"47367","ECCENTRICITY":"0.00011860","EPOCH":"2023-04-04T10:43:30.080352","CENTER_NAME":"EARTH","SEMIMAJOR_AXIS":"6925.450","MEAN_MOTION_DDOT":"0.0000000000000","OBJECT_ID":"2021-005U","PERIOD":"95.594","TLE_LINE1":"1 47367U 21005U   23094.44687593  .00029261  00000-0  19769-2 0  9993","RCS_SIZE":"LARGE","REF_FRAME":"TEME","LAUNCH_DATE":"2021-01-20","OBJECT_TYPE":"PAYLOAD","ELEMENT_SET_NO":"999","SITE":"AFETR","COUNTRY_CODE":"US"},{"MEAN_MOTION_DOT":"0.00012465","RA_OF_ASC_NODE":"185.8618","FILE":"3880063","ARG_OF_PERICENTER":"90.6156","MEAN_ANOMALY":"269.4978","MEAN_MOTION":"15.06377439","OBJECT_NAME":"STARLINK-2084","PERIAPSIS":"546.405","APOAPSIS":"548.161","DECAY_DATE":null,"EPHEMERIS_TYPE":"0","REV_AT_EPOCH":"12268","CLASSIFICATION_TYPE":"U","INCLINATION":"53.0527","TLE_LINE2":"2 47368  53.0527 185.8618 0001268  90.6156 269.4978 15.06377439122682","MEAN_ELEMENT_THEORY":"SGP4","BSTAR":"0.00085476000000","TIME_SYSTEM":"UTC","GP_ID":"229470502","COUNTRY_CODE":"US","OBJECT_TYPE":"PAYLOAD","ELEMENT_SET_NO":"999","SITE":"AFETR","RCS_SIZE":"LARGE","REF_FRAME":"TEME","LAUNCH_DATE":"2021-01-20","PERIOD":"95.594","TLE_LINE1":"1 47368U 21005V   23094.50585574  .00012465  00000-0  85476-3 0  9994","OBJECT_ID":"2021-005V","ECCENTRICITY":"0.00012680","CENTER_NAME":"EARTH","EPOCH":"2023-04-04T12:08:25.935936","SEMIMAJOR_AXIS":"6925.418","MEAN_MOTION_DDOT":"0.0000000000000","NORAD_CAT_ID":"47368"},{"OBJECT_ID":"2021-005W","NORAD_CAT_ID":"47369","MEAN_MOTION_DDOT":"0.0000000000000","SEMIMAJOR_AXIS":"6925.347","EPOCH":"2023-04-04T10:39:29.353536","CENTER_NAME":"EARTH","ECCENTRICITY":"0.00052270","SITE":"AFETR","ELEMENT_SET_NO":"999","OBJECT_TYPE":"PAYLOAD","COUNTRY_CODE":"US","TLE_LINE1":"1 47369U 21005W   23094.44408974  .00022034  00000-0  14932-2 0  9997","PERIOD":"95.592","LAUNCH_DATE":"2021-01-20","REF_FRAME":"TEME","RCS_SIZE":"LARGE","EPHEMERIS_TYPE":"0","REV_AT_EPOCH":"12297","DECAY_DATE":null,"TIME_SYSTEM":"UTC","GP_ID":"229472413","BSTAR":"0.00149320000000","MEAN_ELEMENT_THEORY":"SGP4","TLE_LINE2":"2 47369  53.0544 166.1276 0005227  13.1237 346.9887 15.06400523122976","CLASSIFICATION_TYPE":"U","INCLINATION":"53.0544","ARG_OF_PERICENTER":"13.1237","MEAN_ANOMALY":"346.9887","FILE":"3880135","RA_OF_ASC_NODE":"166.1276","MEAN_MOTION_DOT":"0.00022034","APOAPSIS":"550.832","OBJECT_NAME":"STARLINK-2085","PERIAPSIS":"543.592","MEAN_MOTION":"15.06400523"},{"PERIAPSIS":"546.376","OBJECT_NAME":"STARLINK-2086","APOAPSIS":"548.044","MEAN_MOTION":"15.06401099","FILE":"3879974","ARG_OF_PERICENTER":"87.2524","MEAN_ANOMALY":"272.8603","MEAN_MOTION_DOT":"0.00026089","RA_OF_ASC_NODE":"145.7275","BSTAR":"0.00176380000000","GP_ID":"229462124","TIME_SYSTEM":"UTC","INCLINATION":"53.0512","CLASSIFICATION_TYPE":"U","TLE_LINE2":"2 47370  53.0512 145.7275 0001204  87.2524 272.8603 15.06401099122317","MEAN_ELEMENT_THEORY":"SGP4","EPHEMERIS_TYPE":"0","REV_AT_EPOCH":"12231","DECAY_DATE":null,"PERIOD":"95.592","TLE_LINE1":"1 47370U 21005X   23094.53534053  .00026089  00000-0  17638-2 0  9997","RCS_SIZE":"LARGE","REF_FRAME":"TEME","LAUNCH_DATE":"2021-01-20","OBJECT_TYPE":"PAYLOAD","ELEMENT_SET_NO":"999","SITE":"AFETR","COUNTRY_CODE":"US","NORAD_CAT_ID":"47370","ECCENTRICITY":"0.00012040","EPOCH":"2023-04-04T12:50:53.421792","CENTER_NAME":"EARTH","SEMIMAJOR_AXIS":"6925.345","MEAN_MOTION_DDOT":"0.0000000000000","OBJECT_ID":"2021-005X"},{"MEAN_MOTION":"15.06382010","APOAPSIS":"548.155","PERIAPSIS":"546.382","OBJECT_NAME":"STARLINK-2088","RA_OF_ASC_NODE":"186.0932","MEAN_MOTION_DOT":"0.00029693","MEAN_ANOMALY":"259.0311","ARG_OF_PERICENTER":"101.0822","FILE":"3879974","MEAN_ELEMENT_THEORY":"SGP4","TLE_LINE2":"2 47371  53.0525 186.0932 0001280 101.0822 259.0311 15.06382010121739","INCLINATION":"53.0525","CLASSIFICATION_TYPE":"U","TIME_SYSTEM":"UTC","GP_ID":"229462875","BSTAR":"0.00200490000000","DECAY_DATE":null,"EPHEMERIS_TYPE":"0","REV_AT_EPOCH":"12173","LAUNCH_DATE":"2021-01-20","REF_FRAME":"TEME","RCS_SIZE":"LARGE","TLE_LINE1":"1 47371U 21005Y   23094.45425815  .00029693  00000-0  20049-2 0  9998","PERIOD":"95.593","COUNTRY_CODE":"US","SITE":"AFETR","ELEMENT_SET_NO":"999","OBJECT_TYPE":"PAYLOAD","MEAN_MOTION_DDOT":"0.0000000000000","SEMIMAJOR_AXIS":"6925.404","CENTER_NAME":"EARTH","EPOCH":"2023-04-04T10:54:07.904160","ECCENTRICITY":"0.00012800","NORAD_CAT_ID":"47371","OBJECT_ID":"2021-005Y"},{"OBJECT_ID":"2021-005Z","ECCENTRICITY":"0.00018800","CENTER_NAME":"EARTH","EPOCH":"2023-04-04T17:09:02.340288","SEMIMAJOR_AXIS":"6925.502","MEAN_MOTION_DDOT":"0.0000000000000","NORAD_CAT_ID":"47372","COUNTRY_CODE":"US","OBJECT_TYPE":"PAYLOAD","ELEMENT_SET_NO":"999","SITE":"AFETR","RCS_SIZE":"LARGE","REF_FRAME":"TEME","LAUNCH_DATE":"2021-01-20","PERIOD":"95.595","TLE_LINE1":"1 47372U 21005Z   23094.71461042  .00043701  00000-0  29385-2 0  9998","DECAY_DATE":null,"REV_AT_EPOCH":"12183","EPHEMERIS_TYPE":"0","CLASSIFICATION_TYPE":"U","INCLINATION":"53.0521","TLE_LINE2":"2 47372  53.0521 180.2424 0001880  64.9846 295.1338 15.06349957121831","MEAN_ELEMENT_THEORY":"SGP4","BSTAR":"0.00293850000000","GP_ID":"229493982","TIME_SYSTEM":"UTC","MEAN_MOTION_DOT":"0.00043701","RA_OF_ASC_NODE":"180.2424","FILE":"3880211","MEAN_ANOMALY":"295.1338","ARG_OF_PERICENTER":"64.9846","MEAN_MOTION":"15.06349957","OBJECT_NAME":"STARLINK-2089","PERIAPSIS":"546.065","APOAPSIS":"548.669"},{"COUNTRY_CODE":"US","OBJECT_TYPE":"PAYLOAD","ELEMENT_SET_NO":"999","SITE":"AFETR","RCS_SIZE":"LARGE","REF_FRAME":"TEME","LAUNCH_DATE":"2021-01-20","PERIOD":"95.592","TLE_LINE1":"1 47373U 21005AA  23094.45055736  .00005182  00000-0  36651-3 0  9995","OBJECT_ID":"2021-005AA","ECCENTRICITY":"0.00013420","EPOCH":"2023-04-04T10:48:48.155904","CENTER_NAME":"EARTH","SEMIMAJOR_AXIS":"6925.341","MEAN_MOTION_DDOT":"0.0000000000000","NORAD_CAT_ID":"47373","MEAN_MOTION_DOT":"0.00005182","RA_OF_ASC_NODE":"186.1109","FILE":"3879974","MEAN_ANOMALY":"285.5488","ARG_OF_PERICENTER":"74.5649","MEAN_MOTION":"15.06402481","OBJECT_NAME":"STARLINK-2092","PERIAPSIS":"546.277","APOAPSIS":"548.135","DECAY_DATE":null,"REV_AT_EPOCH":"12173","EPHEMERIS_TYPE":"0","INCLINATION":"53.0531","CLASSIFICATION_TYPE":"U","MEAN_ELEMENT_THEORY":"SGP4","TLE_LINE2":"2 47373  53.0531 186.1109 0001342  74.5649 285.5488 15.06402481121739","BSTAR":"0.00036651000000","GP_ID":"229463627","TIME_SYSTEM":"UTC"},{"OBJECT_ID":"2021-005AB","NORAD_CAT_ID":"47374","MEAN_MOTION_DDOT":"0.0000000000000","SEMIMAJOR_AXIS":"6925.515","CENTER_NAME":"EARTH","EPOCH":"2023-04-04T17:41:27.314880","ECCENTRICITY":"0.00019560","SITE":"AFETR","ELEMENT_SET_NO":"999","OBJECT_TYPE":"PAYLOAD","COUNTRY_CODE":"US","TLE_LINE1":"1 47374U 21005AB  23094.73712170  .00034759  00000-0  23443-2 0  9995","PERIOD":"95.596","LAUNCH_DATE":"2021-01-20","REF_FRAME":"TEME","RCS_SIZE":"LARGE","EPHEMERIS_TYPE":"0","REV_AT_EPOCH":"12177","DECAY_DATE":null,"TIME_SYSTEM":"UTC","GP_ID":"229494736","BSTAR":"0.00234430000000","MEAN_ELEMENT_THEORY":"SGP4","TLE_LINE2":"2 47374  53.0533 184.8224 0001956  58.3585 301.7595 15.06345610121779","CLASSIFICATION_TYPE":"U","INCLINATION":"53.0533","ARG_OF_PERICENTER":"58.3585","MEAN_ANOMALY":"301.7595","FILE":"3880211","RA_OF_ASC_NODE":"184.8224","MEAN_MOTION_DOT":"0.00034759","APOAPSIS":"548.735","PERIAPSIS":"546.026","OBJECT_NAME":"STARLINK-2093","MEAN_MOTION":"15.06345610"},{"MEAN_MOTION_DOT":"-0.00004152","RA_OF_ASC_NODE":"185.9927","ARG_OF_PERICENTER":"90.2297","MEAN_ANOMALY":"269.8840","FILE":"3879974","MEAN_MOTION":"15.06327815","APOAPSIS":"548.328","PERIAPSIS":"546.541","OBJECT_NAME":"STARLINK-2094","DECAY_DATE":null,"EPHEMERIS_TYPE":"0","REV_AT_EPOCH":"12173","MEAN_ELEMENT_THEORY":"SGP4","TLE_LINE2":"2 47375  53.0546 185.9927 0001290  90.2297 269.8840 15.06327815121732","INCLINATION":"53.0546","CLASSIFICATION_TYPE":"U","GP_ID":"229464629","TIME_SYSTEM":"UTC","BSTAR":"-0.00026055000000","COUNTRY_CODE":"US","SITE":"AFETR","OBJECT_TYPE":"PAYLOAD","ELEMENT_SET_NO":"999","LAUNCH_DATE":"2021-01-20","RCS_SIZE":"LARGE","REF_FRAME":"TEME","PERIOD":"95.597","TLE_LINE1":"1 47375U 21005AC  23094.47633931 -.00004152  00000-0 -26055-3 0  9993","OBJECT_ID":"2021-005AC","SEMIMAJOR_AXIS":"6925.570","MEAN_MOTION_DDOT":"0.0000000000000","ECCENTRICITY":"0.00012900","CENTER_NAME":"EARTH","EPOCH":"2023-04-04T11:25:55.716384","NORAD_CAT_ID":"47375"},{"OBJECT_ID":"2021-005AD","NORAD_CAT_ID":"47376","EPOCH":"2023-04-04T11:31:14.628288","CENTER_NAME":"EARTH","ECCENTRICITY":"0.00013410","MEAN_MOTION_DDOT":"0.0000000000000","SEMIMAJOR_AXIS":"6925.508","ELEMENT_SET_NO":"999","OBJECT_TYPE":"PAYLOAD","SITE":"AFETR","COUNTRY_CODE":"US","TLE_LINE1":"1 47376U 21005AD  23094.48003042  .00005615  00000-0  39608-3 0  9990","PERIOD":"95.595","REF_FRAME":"TEME","RCS_SIZE":"LARGE","LAUNCH_DATE":"2021-01-20","REV_AT_EPOCH":"12173","EPHEMERIS_TYPE":"0","DECAY_DATE":null,"BSTAR":"0.00039608000000","TIME_SYSTEM":"UTC","GP_ID":"229463377","CLASSIFICATION_TYPE":"U","INCLINATION":"53.0536","MEAN_ELEMENT_THEORY":"SGP4","TLE_LINE2":"2 47376  53.0536 185.9726 0001341  60.6280 299.4843 15.06347831121731","FILE":"3879974","ARG_OF_PERICENTER":"60.6280","MEAN_ANOMALY":"299.4843","RA_OF_ASC_NODE":"185.9726","MEAN_MOTION_DOT":"0.00005615","OBJECT_NAME":"STARLINK-2096","PERIAPSIS":"546.445","APOAPSIS":"548.302","MEAN_MOTION":"15.06347831"}];
